ONEWEB-0411             
1 51623U 22012B   26154.65043105  .00000126  00000+0  32350-3 0  9990
2 51623  87.8854  38.9617 0001365  93.1492 266.9792 13.10377423207513
ONEWEB-0415             
1 51624U 22012C   26154.64711328 -.00000004  00000+0 -47146-4 0  9996
2 51624  87.8855  38.9614 0001671  93.8329 266.2989 13.10377394207516
ONEWEB-0416             
1 51625U 22012D   26155.04055727  .00000529  00000+0  14786-2 0  9998
2 51625  87.8847  38.9015 0001901  94.7053 265.4291 13.10387379207604
ONEWEB-0422             
1 51626U 22012E   26155.01451140  .00000023  00000+0  26810-4 0  9997
2 51626  87.9148   8.4777 0001376  68.7990 291.3289 13.17650105212073
ONEWEB-0423             
1 51627U 22012F   26155.00777178  .00000049  00000+0  93422-4 0  9990
2 51627  87.9143   8.4856 0001943  81.8340 278.3012 13.17649136211960
ONEWEB-0425             
1 51628U 22012G   26154.21057453  .00000638  00000+0  17917-2 0  9997
2 51628  87.8842  39.0498 0002172  80.3479 279.7893 13.10373275207496
ONEWEB-0428             
1 51629U 22012H   26154.64877189  .00000081  00000+0  19495-3 0  9997
2 51629  87.8850  38.9707 0001792  80.2358 279.8971 13.10377738207518
ONEWEB-0431             
1 51630U 22012J   26154.61874788 -.00000434  00000+0 -12803-2 0  9997
2 51630  87.8841  38.9685 0001263  91.4408 268.6864 13.10370324207564
ONEWEB-0434             
1 51631U 22012K   26154.59580728  .00000614  00000+0  17225-2 0  9994
2 51631  87.8843  38.9978 0002485  83.2774 276.8636 13.10373123207540
ONEWEB-0435             
1 51632U 22012L   26155.06209853  .00001721  00000+0  48916-2 0  9996
2 51632  87.8838  38.8921 0002301  63.4385 296.6978 13.10380938207593
ONEWEB-0436             
1 51633U 22012M   26154.61963665  .00000006  00000+0 -18006-4 0  9990
2 51633  87.9151   8.5438 0001628  83.0416 277.0900 13.17650666211895
ONEWEB-0438             
1 51634U 22012N   26154.20558316  .00000753  00000+0  21196-2 0  9999
2 51634  87.8836  39.0669 0002025  79.1330 281.0026 13.10374572207513
ONEWEB-0439             
1 51635U 22012P   26154.20890175  .00000695  00000+0  19553-2 0  9991
2 51635  87.8840  39.0522 0001867  79.4540 280.6797 13.10373878207491
ONEWEB-0442             
1 51636U 22012Q   26155.06766531 -.00000010  00000+0 -60038-4 0  9994
2 51636  87.9146   8.4882 0002387  90.0535 270.0870 13.17648631211941
ONEWEB-0443             
1 51637U 22012R   26155.01112968  .00000052  00000+0  99686-4 0  9994
2 51637  87.9141   8.5009 0001979  75.4973 284.6378 13.17648555211981
ONEWEB-0444             
1 51638U 22012S   26154.65708459  .00000471  00000+0  13137-2 0  9990
2 51638  87.8849  38.9608 0001873  76.3661 283.7675 13.10376271207560
ONEWEB-0445             
1 51639U 22012T   26155.06045088  .00000477  00000+0  13306-2 0  9993
2 51639  87.8848  38.8687 0001738  91.4440 268.6887 13.10371243207627
ONEWEB-0446             
1 51640U 22012U   26154.65541844  .00000361  00000+0  99765-3 0  9996
2 51640  87.8851  38.9785 0001775  84.6263 275.5067 13.10377028207557
ONEWEB-0448             
1 51641U 22012V   26154.66041105  .00000551  00000+0  15423-2 0  9992
2 51641  87.8845  38.9747 0001838  80.8049 279.3286 13.10374560207529
ONEWEB-0449             
1 51642U 22012W   26154.20724440  .00000624  00000+0  17515-2 0  9998
2 51642  87.8838  39.0496 0002314  83.4271 276.7120 13.10374366207477
ONEWEB-0451             
1 51643U 22012X   26154.99595506  .00000038  00000+0  65984-4 0  9998
2 51643  87.9153   8.4659 0002067  84.1727 275.9640 13.17650143211929
ONEWEB-0452             
1 51644U 22012Y   26154.99425750  .00000054  00000+0  10632-3 0  9999
2 51644  87.9146   8.5049 0002043  82.3200 277.8163 13.17650415211930
ONEWEB-0456             
1 51646U 22012AA  26155.05711405  .00000591  00000+0  16567-2 0  9992
2 51646  87.8853  38.8667 0001651  80.2422 279.8892 13.10377623207627
ONEWEB-0457             
1 51647U 22012AB  26155.03373409  .00000144  00000+0  37743-3 0  9993
2 51647  87.8844  38.8908 0001982  89.6597 270.4758 13.10375614207625
ONEWEB-0458             
1 51648U 22012AC  26155.05551861  .00009407  00000+0  26898-1 0  9994
2 51648  87.8836  38.8726 0002207  82.1464 277.9914 13.10334815207586
ONEWEB-0461             
1 51649U 22012AD  26155.16805786 -.00000211  00000+0 -57757-3 0  9991
2 51649  87.9150   8.4465 0001896  91.4949 268.6399 13.17648826212176
ONEWEB-0463             
1 51650U 22012AE  26154.99763845  .00000070  00000+0  14614-3 0  9998
2 51650  87.9144   8.5040 0001904  95.2047 264.9302 13.17650284211939
ONEWEB-0464             
1 51651U 22012AF  26154.21222205  .00000686  00000+0  19300-2 0  9993
2 51651  87.8840  39.0639 0001753  74.2865 285.8455 13.10372921207491
ONEWEB-0468             
1 51652U 22012AG  26155.05879205  .00000560  00000+0  15665-2 0  9996
2 51652  87.8839  38.8894 0001696  72.6952 287.4361 13.10371197207583
ONEWEB-0473             
1 51653U 22012AH  26154.66206508  .00000642  00000+0  18027-2 0  9999
2 51653  87.8843  38.9707 0001872  78.4141 281.7196 13.10375559207537
ONEWEB-0474             
1 51654U 22012AJ  26155.03554314  .00000179  00000+0  47674-3 0  9999
2 51654  87.8860  38.8787 0001787  71.1864 288.9457 13.10376827207573
