OBJECT_NAME,OBJECT_ID,EPOCH,MEAN_MOTION,ECCENTRICITY,INCLINATION,RA_OF_ASC_NODE,ARG_OF_PERICENTER,MEAN_ANOMALY,EPHEMERIS_TYPE,CLASSIFICATION_TYPE,NORAD_CAT_ID,ELEMENT_SET_NO,REV_AT_EPOCH,BSTAR,MEAN_MOTION_DOT,MEAN_MOTION_DDOT
ONEWEB-0411,2022-012B,2026-06-03T15:36:37.242720,13.10377423,.0001365,87.8854,38.9617,93.1492,266.9792,0,U,51623,999,20751,.3235E-3,.126E-5,0
ONEWEB-0415,2022-012C,2026-06-03T15:31:50.587392,13.10377394,.0001671,87.8855,38.9614,93.8329,266.2989,0,U,51624,999,20751,-.47146E-4,-.4E-7,0
ONEWEB-0416,2022-012D,2026-06-04T00:58:24.148128,13.10387379,.0001901,87.8847,38.9015,94.7053,265.4291,0,U,51625,999,20760,.14786E-2,.529E-5,0
ONEWEB-0422,2022-012E,2026-06-04T00:20:53.784960,13.17650105,.0001376,87.9148,8.4777,68.7990,291.3289,0,U,51626,999,21207,.2681E-4,.23E-6,0
ONEWEB-0423,2022-012F,2026-06-04T00:11:11.481792,13.17649136,.0001943,87.9143,8.4856,81.8340,278.3012,0,U,51627,999,21196,.93422E-4,.49E-6,0
ONEWEB-0425,2022-012G,2026-06-03T05:03:13.639392,13.10373275,.0002172,87.8842,39.0498,80.3479,279.7893,0,U,51628,999,20749,.17917E-2,.638E-5,0
ONEWEB-0428,2022-012H,2026-06-03T15:34:13.891296,13.10377738,.0001792,87.8850,38.9707,80.2358,279.8971,0,U,51629,999,20751,.19495E-3,.81E-6,0
ONEWEB-0431,2022-012J,2026-06-03T14:50:59.816832,13.10370324,.00012633,87.8841,38.9685,91.4408,268.6864,0,U,51630,999,20756,-.12802819E-2,-.434E-5,0
ONEWEB-0434,2022-012K,2026-06-03T14:17:57.748992,13.10373123,.00024851,87.8843,38.9978,83.2774,276.8636,0,U,51631,999,20754,.17225009E-2,.614E-5,0
ONEWEB-0435,2022-012L,2026-06-04T01:29:25.312992,13.10380938,.0002301,87.8838,38.8921,63.4385,296.6978,0,U,51632,999,20759,.48916E-2,.1721E-4,0
ONEWEB-0436,2022-012M,2026-06-03T14:52:16.606560,13.17650666,.00016285,87.9151,8.5438,83.0416,277.0900,0,U,51633,999,21189,-.18005503E-4,.6E-7,0
ONEWEB-0438,2022-012N,2026-06-03T04:56:02.385024,13.10374572,.0002025,87.8836,39.0669,79.1330,281.0026,0,U,51634,999,20751,.21196E-2,.753E-5,0
ONEWEB-0439,2022-012P,2026-06-03T05:00:49.111200,13.10373878,.0001867,87.8840,39.0522,79.4540,280.6797,0,U,51635,999,20749,.19553E-2,.695E-5,0
ONEWEB-0442,2022-012Q,2026-06-04T01:37:26.282784,13.17648631,.0002387,87.9146,8.4882,90.0535,270.0870,0,U,51636,999,21194,-.60038E-4,-.1E-6,0
ONEWEB-0443,2022-012R,2026-06-04T00:16:01.604352,13.17648555,.0001979,87.9141,8.5009,75.4973,284.6378,0,U,51637,999,21198,.99686E-4,.52E-6,0
ONEWEB-0444,2022-012S,2026-06-03T15:46:12.108576,13.10376271,.0001873,87.8849,38.9608,76.3661,283.7675,0,U,51638,999,20756,.13137E-2,.471E-5,0
ONEWEB-0445,2022-012T,2026-06-04T01:27:02.956032,13.10371243,.0001738,87.8848,38.8687,91.4440,268.6887,0,U,51639,999,20762,.13306E-2,.477E-5,0
ONEWEB-0446,2022-012U,2026-06-03T15:43:48.153216,13.10377028,.0001775,87.8851,38.9785,84.6263,275.5067,0,U,51640,999,20755,.99765E-3,.361E-5,0
ONEWEB-0448,2022-012V,2026-06-03T15:50:59.514720,13.10374560,.0001838,87.8845,38.9747,80.8049,279.3286,0,U,51641,999,20752,.15423E-2,.551E-5,0
ONEWEB-0449,2022-012W,2026-06-03T04:58:25.916160,13.10374366,.0002314,87.8838,39.0496,83.4271,276.7120,0,U,51642,999,20747,.17515E-2,.624E-5,0
ONEWEB-0451,2022-012X,2026-06-03T23:54:10.517184,13.17650143,.0002067,87.9153,8.4659,84.1727,275.9640,0,U,51643,999,21192,.65984E-4,.38E-6,0
ONEWEB-0452,2022-012Y,2026-06-03T23:51:43.848000,13.17650415,.0002043,87.9146,8.5049,82.3200,277.8163,0,U,51644,999,21193,.10632E-3,.54E-6,0
ONEWEB-0456,2022-012AA,2026-06-04T01:22:14.653920,13.10377623,.0001651,87.8853,38.8667,80.2422,279.8892,0,U,51646,999,20762,.16567E-2,.591E-5,0
ONEWEB-0457,2022-012AB,2026-06-04T00:48:34.625376,13.10375614,.0001982,87.8844,38.8908,89.6597,270.4758,0,U,51647,999,20762,.37743E-3,.144E-5,0
ONEWEB-0458,2022-012AC,2026-06-04T01:19:56.807904,13.10334815,.0002207,87.8836,38.8726,82.1464,277.9914,0,U,51648,999,20758,.26898E-1,.9407E-4,0
ONEWEB-0461,2022-012AD,2026-06-04T04:02:00.199104,13.17648826,.0001896,87.9150,8.4465,91.4949,268.6399,0,U,51649,999,21217,-.57757E-3,-.211E-5,0
ONEWEB-0463,2022-012AE,2026-06-03T23:56:35.962080,13.17650284,.0001904,87.9144,8.5040,95.2047,264.9302,0,U,51650,999,21193,.14614E-3,.7E-6,0
ONEWEB-0464,2022-012AF,2026-06-03T05:05:35.985120,13.10372921,.0001753,87.8840,39.0639,74.2865,285.8455,0,U,51651,999,20749,.193E-2,.686E-5,0
ONEWEB-0468,2022-012AG,2026-06-04T01:24:39.633120,13.10371197,.0001696,87.8839,38.8894,72.6952,287.4361,0,U,51652,999,20758,.15665E-2,.56E-5,0
ONEWEB-0473,2022-012AH,2026-06-03T15:53:22.422912,13.10375559,.0001872,87.8843,38.9707,78.4141,281.7196,0,U,51653,999,20753,.18027E-2,.642E-5,0
ONEWEB-0474,2022-012AJ,2026-06-04T00:51:10.927296,13.10376827,.0001787,87.8860,38.8787,71.1864,288.9457,0,U,51654,999,20757,.47674E-3,.179E-5,0
